SONATE-2
1 59112U 24043Q   26147.90590238  .00040886  00000+0  56434-3 0  9997
2 59112  97.5508 297.0857 0005991 268.8337  91.2231 15.57062134124732
GRBBeta
1 60237U 24128C   26147.77755604  .00005563  00000+0  38159-3 0  9993
2 60237  61.9906 287.8641 0043435 130.4379 230.0515 15.06451693103193
Curium One
1 60242U 24128H   26147.93828614  .00011385  00000+0  65421-3 0  9990
2 60242  61.9790 277.4753 0042767 126.6319 233.8721 15.12155768103390
ROBUSTA-3A
1 60243U 24128J   26147.95808394  .00011621  00000+0  68218-3 0  9996
2 60243  61.9867 279.7651 0044035 124.2670 236.2608 15.11326102103361
CatSat
1 60246U 24125J   26147.83643381  .00061593  00000+0  86904-3 0  9991
2 60246  97.2110   0.1091 0021198 254.1863 105.7055 15.56127026104228
ARTIC WX
1 60543U 24149CD  26147.73565764  .00000511  00000+0  58841-4 0  9997
2 60543  97.6803 218.7851 0002839 144.3950 215.7458 14.89790184 96258
ARCTICSAT 1
1 61762U 24199AD  26147.89806986  .00442892  78219-4  13012-2 0  9990
2 61762  97.2864  30.4643 0002762 168.2326 191.9014 15.92686282134872
HYPERVIEW-1G (RS66S)
1 61772U 24199AP  26147.89918123  .00131374  00000+0  10569-2 0  9990
2 61772  97.2926  26.6705 0003974  14.0441 346.0931 15.70533223131487
AO-123
1 61781U 24199AY  26147.89815407  .00009515  00000+0  27860-3 0  9995
2 61781  97.3033  16.7540 0014615  28.8349 331.3700 15.35336288130818
SAMSAT-IONOSPHERE
1 61784U 24199BB  26147.93950107  .00052901  00000+0  76664-3 0  9993
2 61784  97.2985  23.3763 0008222  12.5066 347.6391 15.55665230134410
LASARsat
1 62391U 24247Q   26147.68335736  .00038361  00000+0  80081-3 0  9991
2 62391  44.9765  17.3150 0007063 217.8979 142.1414 15.44918092 80147
CROCUBE
1 62394U 24247T   26146.99453931  .00037990  00000+0  75025-3 0  9994
2 62394  44.9734  18.8380 0006676 216.9577 143.0853 15.46544301 80068
JINJUSat 1B
1 63210U 25052A   26147.65215957  .00019974  00000+0  63260-3 0  9995
2 63210  97.4034  44.3880 0004578 133.7958 226.3664 15.32765322 66959
NUSHSAT 1
1 63211U 25052B   26147.66254041  .00025253  00000+0  74318-3 0  9997
2 63211  97.4013  44.8963 0004395 133.2443 226.9168 15.35049156 66997
TEVEL2-4
1 63213U 25052D   26147.70265834  .00021901  00000+0  67150-3 0  9998
2 63213  97.3935  44.0697 0003424 141.9601 218.1884 15.33784944 66976
TEVEL2-5
1 63214U 25052E   26147.65568466  .00021838  00000+0  67303-3 0  9999
2 63214  97.3933  43.9764 0003353 142.3005 217.8473 15.33620752 66967
TEVEL2-6
1 63215U 25052F   26147.66752051  .00021842  00000+0  67393-3 0  9990
2 63215  97.3933  43.9727 0003447 141.6466 218.5022 15.33583038 66967
TEVEL2-1
1 63217U 25052H   26147.68961718  .00020503  00000+0  64294-3 0  9996
2 63217  97.3913  43.6431 0002996 152.4750 207.6651 15.33081293 66952
TEVEL2-3
1 63218U 25052J   26147.68496713  .00020134  00000+0  63047-3 0  9990
2 63218  97.3914  43.6577 0003039 154.1382 206.0013 15.33130504 66959
TEVEL2-2
1 63219U 25052K   26147.69003654  .00020482  00000+0  64216-3 0  9995
2 63219  97.3910  43.6453 0003005 152.9601 207.1799 15.33087700 66954
TEVEL2-9
1 63237U 25052AD  26147.70673179  .00019291  00000+0  64199-3 0  9998
2 63237  97.3972  43.0809 0005323 194.9046 165.2040 15.31176498 66892
TEVEL2-7
1 63238U 25052AE  26147.67846355  .00018511  00000+0  62148-3 0  9999
2 63238  97.3974  42.9770 0005419 195.8503 164.2569 15.30898411 66883
TEVEL2-8
1 63239U 25052AF  26147.94795034  .00019005  00000+0  63810-3 0  9993
2 63239  97.3974  43.2232 0005457 195.3528 164.7549 15.30890792 66927
PARUS-T2
1 64560U 25135AJ  26147.86698393  .00006599  00000+0  60205-3 0  9993
2 64560  97.7712 262.7172 0001338  81.4418 278.6955 14.95420893 50871
Geoscan-1
1 64880U 25155E   26147.91652478  .00013333  00000+0  45740-3 0  9991
2 64880  97.4536 116.5287 0005699 240.9411 119.1259 15.30272118 77677
Geoscan-2
1 64890U 25155Q   26147.91381101  .00013390  00000+0  45551-3 0  9997
2 64890  97.4536 116.6703 0005383 222.0924 137.9904 15.30546943 77688
Geoscan-4
1 64892U 25155S   26147.95889990  .00017499  00000+0  55451-3 0  9996
2 64892  97.4534 117.2393 0003925 244.4239 115.6598 15.32779265 77721
Geoscan-3
1 64893U 25155T   26147.91970002  .00022195  00000+0  66276-3 0  9994
2 64893  97.4522 117.5732 0003687 241.6433 118.4438 15.34619407 77748
SPIRONE
1 66657U 25274H   26147.75352405  .00002626  00000+0  25474-3 0  9991
2 66657  97.7482  77.3384 0013788  83.1345 277.1443 14.93447413 27177
K-HERO
1 66660U 25274L   26147.76385514  .00002364  00000+0  22733-3 0  9997
2 66660  97.7490  77.4946 0015673  86.7996 273.5017 14.93870462 27183
SNUGLITE-III DURI
1 66661U 25274M   26147.75224094  .00002344  00000+0  22521-3 0  9995
2 66661  97.7487  77.5030 0016254  87.8817 272.4264 14.93919980 27186
GALAPAGOS
1 67279U 25313AH  26147.76951820  .00008700  00000+0  37699-3 0  9994
2 67279  97.3933 222.7049 0015656  78.4335 281.8658 15.22511641 22848
Lobachevsky
1 67282U 25313AL  26147.78165638  .00006148  00000+0  26552-3 0  9994
2 67282  97.3935 222.8294 0012188  75.0518 285.2067 15.22795900 22855
SAKHACUBE-CHOLBON
1 67290U 25313AU  26147.74964631  .00012079  00000+0  49379-3 0  9991
2 67290  97.3944 223.0455 0010613  73.3656 286.8746 15.24455120 22862
RS95S (QMR-KWT-2)
1 67291U 25313AV  26147.16526517  .00016417  00000+0  64630-3 0  9992
2 67291  97.3940 222.6031 0010216  74.8721 285.3647 15.25650577 22781
KNACKSAT-2
1 67683U 98067XZ  26147.90267453  .00049292  00000+0  64702-3 0  9993
2 67683  51.6304  36.3622 0011674 127.9616 232.2433 15.57954047 17110
Ten-Koh2
1 68261U 25241B   26147.94699302  .00008731  00000+0  37287-3 0  9997
2 68261  51.6635  55.9376 0006615  82.5685 277.6044 15.23618092 11827
JACK-002
1 68417U 26067B   26147.94135203  .00007997  00000+0  38414-3 0  9998
2 68417  97.4552 106.7878 0002616  40.8580 319.2851 15.19100368  8873
DISCO 2
1 68431U 26067R   26147.82608554  .00010124  00000+0  49068-3 0  9998
2 68431  97.4586 106.6642 0004254  77.5528 282.6182 15.18714387  8852
HADES-SA (SpinnyONE)
1 68446U 26067AG  26147.92833684  .00021092  00000+0  10295-2 0  9994
2 68446  97.4394 106.5410 0008840 131.9511 228.2478 15.18269288  8858
PARUS-6U1
1 68456U 26067AS  26147.94362445  .00007255  00000+0  36737-3 0  9994
2 68456  97.4536 106.6233 0007419 123.5407 236.6536 15.17272308  8868
SAL-E
1 68458U 26067AU  26147.87578293  .00009014  00000+0  45357-3 0  9991
2 68458  97.4464 106.5069 0007391 130.5608 229.6271 15.17421184  8851
FSI-SAT 2
1 68792U 26088A   26147.89787106  .00006125  00000+0  41615-3 0  9995
2 68792  97.5039 297.6723 0014793 172.2396 187.9064 15.06637686  5230
OrigamiSat 2
1 68795U 26088D   26147.86405515  .00003952  00000+0  25899-3 0  9997
2 68795  97.5041 297.7196 0016950 145.3249 214.9088 15.08162885  5239
ARICA 2
1 68796U 26088E   26147.86139126  .00005000  00000+0  32595-3 0  9997
2 68796  97.5033 297.7167 0016823 144.0778 216.1585 15.08228168  5234
WASEDA-SAT-ZERO-II
1 68797U 26088F   26147.92585626  .00007169  00000+0  46378-3 0  9997
2 68797  97.5030 297.7835 0016718 143.9835 216.2523 15.08363438  5243
MANGARO-II-Piscus
1 68798U 26088G   26147.85247737  .00004420  00000+0  28538-3 0  9993
2 68798  97.5036 297.7319 0020054 147.5891 212.6574 15.08601554  5236
Delfi-N3xt
1 39428U 13066N   26147.76350237  .00007293  00000-0  64039-3 0  9991
2 39428  97.8341  68.0966 0073220 275.0804  84.2062 14.94828206671577
IO-86
1 40931U          25360.30710720  .00000000  00000-0  12800-3 0    00
2 40931   6.0006 332.5373 0012733 338.8432   8.1437 14.79075515    01
LILIUM-4
1 71922C 26067AC  26089.50133053 -.00014632  00000 0 -74472-3 0    04
2 71922  97.4497  49.1617 0004341   5.9603 355.7042 15.16896692    16
TRANSIT 5B-5
1 00965U 64083D   26140.22132175  .00000058  00000-0  68520-4 0  9995
2 00965  90.0785 202.8139 0041495   2.6876  57.4259 13.57009955 39826
PARUS-T1
1 98707U 25009N   25063.20000000  .00000000  00000-0  00000-0 0    08
2 98707  97.4430 144.9801 0003811 149.1702 136.3402 15.16239457    06
T.MicroSat-1
1 98515U 25276Y   25347.12519372 +.00009703 +00000+0 +47621-3 0 00218
2 98515  97.4377  58.8963 0002080  99.7173 260.4296 15.18293117002180
ARICA-2
1 98329U 27001A   26113.71443610  .00000000  00000-0  29916-3 0    03
2 98329  97.5133 264.2063 0010953 206.3608 281.8662 15.08387874    01
CORIOLIS
1 27640U 03001A   26147.90321481  .00000120  00000+0  77269-4 0  9998
2 27640  98.7127 155.0977 0012787 271.6541  88.3171 14.19938629211341
